norad_id,name,regime,epoch,line1,line2,inclination,eccentricity,mean_motion,raan,arg_pericenter,mean_anomaly
25049,SIRIUS 2 (GE-1E),GEO,23285.92902429,1 25049U 97071A   23285.92902429  .00000048  00000-0  00000-0 0    17,2 25049  10.3452  40.9891 0004212 116.2517 229.3814  0.99404591 94395,10.3452,0.0004212,0.99404591,40.9891,116.2517,229.3814
25049,SIRIUS 2 (GE-1E),GEO,23287.97489608,1 25049U 97071A   23287.97489608  .00000017  00000-0  00000-0 0    19,2 25049  10.3488  40.9766 0004119 117.9554 239.8328  0.99405555 94410,10.3488,0.0004119,0.99405555,40.9766,117.9554,239.8328
25049,SIRIUS 2 (GE-1E),GEO,23288.93483584,1 25049U 97071A   23288.93483584 -.00000001  00000-0  00000-0 0    17,2 25049  10.3505  40.9707 0004075 118.7246 222.6002  0.99406009 94428,10.3505,0.0004075,0.99406009,40.9707,118.7246,222.6002
25049,SIRIUS 2 (GE-1E),GEO,23288.97736025,1 25049U 97071A   23288.97736025 -.00000002  00000-0  00000-0 0    13,2 25049  10.3505  40.9705 0004072 118.7493 237.7931  0.99406010 94427,10.3505,0.0004072,0.9940601,40.9705,118.7493,237.7931
25049,SIRIUS 2 (GE-1E),GEO,23289.96668281,1 25049U 97071A   23289.96668281 -.00000021  00000-0  00000-0 0    12,2 25049  10.3522  40.9644 0004028 119.4648 231.1305  0.99406439 94438,10.3522,0.0004028,0.99406439,40.9644,119.4648,231.1305
25049,SIRIUS 2 (GE-1E),GEO,23291.05364459,1 25049U 97071A   23291.05364459 -.00000044  00000-0  00000-0 0    10,2 25049  10.3541  40.9575 0003975 120.2197 259.3715  0.99406843 94459,10.3541,0.0003975,0.99406843,40.9575,120.2197,259.3715
25049,SIRIUS 2 (GE-1E),GEO,23291.92338135,1 25049U 97071A   23291.92338135 -.00000064  00000-0  00000-0 0    10,2 25049  10.3556  40.9520 0003940 120.7519 210.0991  0.99407187 94452,10.3556,0.000394,0.99407187,40.952,120.7519,210.0991
25049,SIRIUS 2 (GE-1E),GEO,23291.98104990,1 25049U 97071A   23291.98104990 -.00000065  00000-0  00000-0 0    17,2 25049  10.3557  40.9516 0003935 120.7820 230.7074  0.99407210 94455,10.3557,0.0003935,0.9940721,40.9516,120.782,230.7074
25049,SIRIUS 2 (GE-1E),GEO,23292.70674421,1 25049U 97071A   23292.70674421 -.00000081  00000-0  00000-0 0    17,2 25049  10.3569  40.9469 0003909 121.1804 130.0190  0.99407440 94460,10.3569,0.0003909,0.9940744,40.9469,121.1804,130.019
25049,SIRIUS 2 (GE-1E),GEO,23293.05842024,1 25049U 97071A   23293.05842024 -.00000089  00000-0  00000-0 0    10,2 25049  10.3575  40.9447 0003882 121.4309 255.6248  0.99407529 94473,10.3575,0.0003882,0.99407529,40.9447,121.4309,255.6248
25049,SIRIUS 2 (GE-1E),GEO,23294.56205771,1 25049U 97071A   23294.56205771 -.00000123  00000-0  00000-0 0    18,2 25049  10.3601  40.9349 0003825 122.1873  72.9898  0.99407922 94484,10.3601,0.0003825,0.99407922,40.9349,122.1873,72.9898
25049,SIRIUS 2 (GE-1E),GEO,23295.06322104,1 25049U 97071A   23295.06322104 -.00000135  00000-0  00000+0 0  2748,2 25049  10.3610  40.9317 0003790 122.4749 252.0598  0.99408066 94573,10.361,0.000379,0.99408066,40.9317,122.4749,252.0598
25049,SIRIUS 2 (GE-1E),GEO,23295.56447139,1 25049U 97071A   23295.56447139 -.00000145  00000-0  00000-0 0    19,2 25049  10.3618  40.9284 0003769 122.8353  71.0859  0.99408121 94497,10.3618,0.0003769,0.99408121,40.9284,122.8353,71.0859
25049,SIRIUS 2 (GE-1E),GEO,23296.56686764,1 25049U 97071A   23296.56686764 -.00000166  00000-0  00000-0 0    12,2 25049  10.3635  40.9220 0003722 123.3468  69.3147  0.99408309 94508,10.3635,0.0003722,0.99408309,40.922,123.3468,69.3147
25049,SIRIUS 2 (GE-1E),GEO,23297.06805801,1 25049U 97071A   23297.06805801 -.00000175  00000-0  00000-0 0    13,2 25049  10.3644  40.9188 0003692 123.5507 248.4787  0.99408401 94517,10.3644,0.0003692,0.99408401,40.9188,123.5507,248.4787
25049,SIRIUS 2 (GE-1E),GEO,23298.07042187,1 25049U 97071A   23298.07042187 -.00000193  00000-0  00000-0 0    15,2 25049  10.3661  40.9124 0003655 123.9493 246.8076  0.99408473 94526,10.3661,0.0003655,0.99408473,40.9124,123.9493,246.8076
25049,SIRIUS 2 (GE-1E),GEO,23301.07765171,1 25049U 97071A   23301.07765171 -.00000235  00000-0  00000-0 0    12,2 25049  10.3712  40.8936 0003547 125.2796 241.7106  0.99408419 94555,10.3712,0.0003547,0.99408419,40.8936,125.2796,241.7106
25049,SIRIUS 2 (GE-1E),GEO,23304.08483844,1 25049U 97071A   23304.08483844 -.00000262  00000-0  00000-0 0    10,2 25049  10.3763  40.8749 0003449 126.9236 236.2831  0.99408001 94585,10.3763,0.0003449,0.99408001,40.8749,126.9236,236.2831
25049,SIRIUS 2 (GE-1E),GEO,23305.08719983,1 25049U 97071A   23305.08719983 -.00000267  00000-0  00000-0 0    12,2 25049  10.3780  40.8686 0003419 127.5427 234.3881  0.99407755 94590,10.378,0.0003419,0.99407755,40.8686,127.5427,234.3881
25049,SIRIUS 2 (GE-1E),GEO,23306.08963488,1 25049U 97071A   23306.08963488 -.00000270  00000-0  00000-0 0    18,2 25049  10.3797  40.8624 0003386 128.2751 232.4074  0.99407531 94608,10.3797,0.0003386,0.99407531,40.8624,128.2751,232.4074
25049,SIRIUS 2 (GE-1E),GEO,23307.09200069,1 25049U 97071A   23307.09200069 -.00000271  00000-0  00000-0 0    10,2 25049  10.3814  40.8562 0003354 129.0567 230.3497  0.99407226 94605,10.3814,0.0003354,0.99407226,40.8562,129.0567,230.3497
25049,SIRIUS 2 (GE-1E),GEO,23308.09437608,1 25049U 97071A   23308.09437608 -.00000269  00000-0  00000-0 0    19,2 25049  10.3831  40.8501 0003313 130.1565 227.9766  0.99406912 94616,10.3831,0.0003313,0.99406912,40.8501,130.1565,227.9766
25049,SIRIUS 2 (GE-1E),GEO,23309.09679182,1 25049U 97071A   23309.09679182 -.00000265  00000-0  00000-0 0    11,2 25049  10.3849  40.8439 0003279 131.0048 225.8687  0.99406584 94627,10.3849,0.0003279,0.99406584,40.8439,131.0048,225.8687
25049,SIRIUS 2 (GE-1E),GEO,23310.09924351,1 25049U 97071A   23310.09924351 -.00000259  00000-0  00000+0 0  2805,2 25049  10.3866  40.8377 0003244 131.9055 223.7195  0.99406230 94726,10.3866,0.0003244,0.9940623,40.8377,131.9055,223.7195
25049,SIRIUS 2 (GE-1E),GEO,23312.16625789,1 25049U 97071A   23312.16625789 -.00000241  00000-0  00000-0 0    11,2 25049  10.3903  40.8252 0003137 134.4290 240.9230  0.99405472 94661,10.3903,0.0003137,0.99405472,40.8252,134.429,240.923
25049,SIRIUS 2 (GE-1E),GEO,23313.22824701,1 25049U 97071A   23313.22824701 -.00000229  00000-0  00000-0 0    10,2 25049  10.3919  40.8189 0003109 134.9276 260.4786  0.99405077 94670,10.3919,0.0003109,0.99405077,40.8189,134.9276,260.4786
25049,SIRIUS 2 (GE-1E),GEO,23314.17991675,1 25049U 97071A   23314.17991675 -.00000217  00000-0  00000-0 0    17,2 25049  10.3936  40.8132 0003109 135.2822 240.6959  0.99404692 94683,10.3936,0.0003109,0.99404692,40.8132,135.2822,240.6959
25049,SIRIUS 2 (GE-1E),GEO,23315.18218896,1 25049U 97071A   23315.18218896 -.00000204  00000-0  00000-0 0    12,2 25049  10.3953  40.8071 0003027 136.8460 237.8129  0.99404327 94691,10.3953,0.0003027,0.99404327,40.8071,136.846,237.8129
25049,SIRIUS 2 (GE-1E),GEO,23316.19134470,1 25049U 97071A   23316.19134470 -.00000191  00000-0  00000+0 0  2835,2 25049  10.3970  40.8009 0002963 138.0334 237.7694  0.99403989 94782,10.397,0.0002963,0.99403989,40.8009,138.0334,237.7694
25049,SIRIUS 2 (GE-1E),GEO,23316.53714255,1 25049U 97071A   23316.53714255 -.00000186  00000-0  00000-0 0    11,2 25049  10.3975  40.7987 0002946 138.2183   1.3336  0.99403856 94709,10.3975,0.0002946,0.99403856,40.7987,138.2183,1.3336
25049,SIRIUS 2 (GE-1E),GEO,23317.18674861,1 25049U 97071A   23317.18674861 -.00000177  00000-0  00000-0 0    11,2 25049  10.3986  40.7947 0002919 138.8304 233.1912  0.99403598 94717,10.3986,0.0002919,0.99403598,40.7947,138.8304,233.1912
25049,SIRIUS 2 (GE-1E),GEO,23318.16953809,1 25049U 97071A   23318.16953809 -.00000164  00000-0  00000-0 0    18,2 25049  10.4003  40.7887 0002869 139.7391 223.9876  0.99403267 94721,10.4003,0.0002869,0.99403267,40.7887,139.7391,223.9876
25049,SIRIUS 2 (GE-1E),GEO,23319.15561155,1 25049U 97071A   23319.15561155 -.00000151  00000-0  00000+0 0  2845,2 25049  10.4020  40.7825 0002812 140.5850 216.0214  0.99402963 94811,10.402,0.0002812,0.99402963,40.7825,140.585,216.0214
25049,SIRIUS 2 (GE-1E),GEO,23319.28159515,1 25049U 97071A   23319.28159515 -.00000149  00000-0  00000-0 0    17,2 25049  10.4022  40.7817 0002803 140.7460 260.9446  0.99402909 94739,10.4022,0.0002803,0.99402909,40.7817,140.746,260.9446
25049,SIRIUS 2 (GE-1E),GEO,23320.28080736,1 25049U 97071A   23320.28080736 -.00000135  00000-0  00000-0 0    12,2 25049  10.4039  40.7753 0002751 141.5487 257.7215  0.99402599 94740,10.4039,0.0002751,0.99402599,40.7753,141.5487,257.7215
25049,SIRIUS 2 (GE-1E),GEO,23321.19594244,1 25049U 97071A   23321.19594244 -.00000123  00000-0  00000-0 0    14,2 25049  10.4054  40.7695 0002698 142.2049 224.5567  0.99402347 94758,10.4054,0.0002698,0.99402347,40.7695,142.2049,224.5567
25049,SIRIUS 2 (GE-1E),GEO,23322.19824184,1 25049U 97071A   23322.19824184 -.00000108  00000-0  00000-0 0    17,2 25049  10.4071  40.7631 0002643 142.8502 222.5937  0.99402073 94763,10.4071,0.0002643,0.99402073,40.7631,142.8502,222.5937
25049,SIRIUS 2 (GE-1E),GEO,23323.20055302,1 25049U 97071A   23323.20055302 -.00000093  00000-0  00000-0 0    11,2 25049  10.4088  40.7566 0002592 143.3525 220.7768  0.99401816 94779,10.4088,0.0002592,0.99401816,40.7566,143.3525,220.7768
25049,SIRIUS 2 (GE-1E),GEO,23324.20278587,1 25049U 97071A   23324.20278587 -.00000078  00000-0  00000-0 0    17,2 25049  10.4105  40.7502 0002532 143.9884 218.8001  0.99401650 94782,10.4105,0.0002532,0.9940165,40.7502,143.9884,218.8001
25049,SIRIUS 2 (GE-1E),GEO,23325.26832744,1 25049U 97071A   23325.26832744 -.00000060  00000-0  00000-0 0    16,2 25049  10.4123  40.7436 0002423 145.2014 238.8969  0.99401401 94797,10.4123,0.0002423,0.99401401,40.7436,145.2014,238.8969
25049,SIRIUS 2 (GE-1E),GEO,23326.29930764,1 25049U 97071A   23326.29930764 -.00000043  00000-0  00000-0 0    12,2 25049  10.4140  40.7370 0002378 145.6732 247.3690  0.99401269 94803,10.414,0.0002378,0.99401269,40.737,145.6732,247.369
